CCSDS_OEM_VERS = 2.0
CREATION_DATE  = 2024-09-30T17:25:29.634
ORIGINATOR     = NASA/JSC/FOD/TOPO

META_START
OBJECT_NAME          = ISS
OBJECT_ID            = 1998-067-A
CENTER_NAME          = Earth
REF_FRAME            = EME2000
TIME_SYSTEM          = UTC
START_TIME           = 2024-09-30T11:54:52.955
USEABLE_START_TIME   = 2024-09-30T11:54:52.955
USEABLE_STOP_TIME    = 2024-10-15T11:54:52.955
STOP_TIME            = 2024-10-15T11:54:52.955
META_STOP

COMMENT Source: This file was produced by the TOPO office within FOD at JSC.
COMMENT Units are in kg and m^2
COMMENT MASS=473141.00
COMMENT DRAG_AREA=1593.31
COMMENT DRAG_COEFF=1.90
COMMENT SOLAR_RAD_AREA=0.00
COMMENT SOLAR_RAD_COEFF=0.00
COMMENT Orbits start at the ascending node epoch
COMMENT ISS first asc. node: EPOCH = 2024-09-30T12:06:33.587 $ ORBIT = 3488 $ LAN(DEG) = -37.63372
COMMENT ISS last asc. node : EPOCH = 2024-10-15T11:11:18.098 $ ORBIT = 3720 $ LAN(DEG) = -112.65637
COMMENT Begin sequence of events
COMMENT TRAJECTORY EVENT SUMMARY:
COMMENT 
COMMENT |       EVENT        |       TIG        | ORB |   DV    |   HA    |   HP    |
COMMENT |                    |       GMT        |     |   M/S   |   KM    |   KM    |
COMMENT |                    |                  |     |  (F/S)  |  (NM)   |  (NM)   |
COMMENT =============================================================================
COMMENT  GMT278 Reboost Preli  278:08:29:00.000             1.7     426.4     405.7
COMMENT                                                    (5.6)   (230.3)   (219.0)
COMMENT 
COMMENT  Crew8_Undock          281:07:00:00.000             0.0     427.2     409.8
COMMENT                                                    (0.0)   (230.7)   (221.3)
COMMENT 
COMMENT =============================================================================
COMMENT End sequence of events
2024-10-04T17:02:30.000 -3694.708996529380 -2135.202871124480 5279.120225629960 4.65480964210185 -6.03450264007477 0.81946354454084
2024-10-04T17:06:30.000 -2456.759987882060 -3488.239224185390 5280.863577831710 5.59839025665185 -5.17200580753588 -0.80492947566776
2024-10-04T17:10:30.000 -1040.148295566850 -4587.620588572270 4897.491735405610 6.13463017370492 -3.93360851638508 -2.37024314139647
2024-10-04T17:14:30.000 452.089394806601 -5353.438884393610 4157.012452787520 6.22478352706865 -2.40924895356417 -3.76265480523060
2024-10-04T17:18:30.000 1911.450191152290 -5730.006071846480 3113.417229694560 5.86232663413236 -0.70965397295046 -4.88074239995975
2024-10-04T17:22:30.000 3231.825959044990 -5689.944653180350 1842.801573251490 5.07367657479258 1.04140219171572 -5.64288528264301
2024-10-04T17:26:30.000 4317.267124437510 -5236.255875665390 437.839321729589 3.91659371129512 2.71611047562143 -5.99346709014993
2024-10-04T17:30:30.000 5089.052448706010 -4402.136058953090 -999.036758865052 2.47598253322217 4.19226663947601 -5.90731549831525
2024-10-04T17:34:30.000 5491.469204737790 -3248.489581242660 -2363.220847345630 0.85741538965575 5.36266614509838 -5.39157625860186
2024-10-04T17:38:30.000 5495.807576924250 -1859.337676277570 -3555.638838954840 -0.82109344276495 6.14302334153943 -4.48485214396463
2024-10-04T17:42:30.000 5102.287527207920 -335.562753710042 -4489.952234948730 -2.43799465621484 6.47791612878773 -3.25392406283718
2024-10-04T17:46:30.000 4339.832337860050 1212.488975171760 -5098.709114042400 -3.87706503395365 6.34426515455772 -1.78837039188086
2024-10-04T17:50:30.000 3263.809904448050 2672.935926336420 -5338.032262700860 -5.03539164280748 5.75233665556760 -0.19388552945859
2024-10-04T17:54:30.000 1951.997347141920 3940.266072764150 -5190.610551465270 -5.83015846503118 4.74457917299474 1.41510725544592
2024-10-04T17:58:30.000 499.088322202487 4922.732405506620 -4666.881595739040 -6.20398469846186 3.39263317325199 2.92306042271397
2024-10-04T18:02:30.000 -989.919773534662 5548.849192787450 -3804.379875576400 -6.12893078364307 1.79280138585909 4.22100471388180
2024-10-04T18:06:30.000 -2407.111086083580 5772.604497771550 -2665.245889778590 -5.60887824430808 0.05992854322344 5.21408176576355
2024-10-04T18:10:30.000 -3649.403380505810 5577.019456670960 -1331.970046264740 -4.68012462591089 -1.68033294509526 5.82871149765232
2024-10-04T18:14:30.000 -4626.138764330750 4975.656452017550 98.475080890726 -3.40934069370014 -3.30071529663286 6.01863541669220
2024-10-04T18:18:30.000 -5265.874037517340 4011.853975087590 1521.712258359410 -1.88903776144706 -4.68196283242010 5.76888846475170
2024-10-04T18:22:30.000 -5521.806352261230 2755.657660958530 2833.718698183720 -0.23069747573575 -5.72227672500617 5.09741589679933
2024-10-04T18:26:30.000 -5375.300224125880 1298.624431798800 3938.615328709410 1.44397624818113 -6.34534915219744 4.05366000947315
2024-10-04T18:30:30.000 -4837.210094563120 -253.023490240917 4755.783451681880 3.01252027607981 -6.50597943550124 2.71446861877101
2024-10-04T18:34:30.000 -3946.961665482030 -1786.263261053570 5225.745590333540 4.36073851544303 -6.19299624314749 1.17806079815421
2024-10-04T18:38:30.000 -2769.552222667540 -3189.555576059020 5314.433065413380 5.39103232508146 -5.42976507301240 -0.44340362830881
2024-10-04T18:42:30.000 -1390.722796387440 -4360.905338743270 5015.542549544090 6.02906123558875 -4.27192414619468 -2.03206459456697
2024-10-04T18:46:30.000 89.237241021516 -5215.172281609820 4350.930944906300 6.22865435625725 -2.80350526657306 -3.47246947210768
2024-10-04T18:50:30.000 1562.708843178010 -5690.235375285000 3369.060415828920 5.97532633425781 -1.13118103074333 -4.65970736983867
2024-10-04T18:54:30.000 2922.551089147720 -5751.547442218740 2141.522393415910 5.28754237393216 0.62332365880753 -5.50714296829863
2024-10-04T18:58:30.000 4069.921982620790 -5394.714411675920 757.845538452947 4.21562344961356 2.33200613027113 -5.95290369861779
2024-10-04T19:02:30.000 4921.550987413040 -4645.864194225420 -681.069997051790 2.83821847263721 3.87012605124223 -5.96473820636643
2024-10-04T19:06:30.000 5415.869431702930 -3559.706595153980 -2070.422082455790 1.25633866014594 5.12579635149682 -5.54255873839413
2024-10-04T19:10:30.000 5517.462539644740 -2215.404131155220 -3309.242948633130 -0.41448863515723 6.00837409816347 -4.71816411299983
2024-10-04T19:14:30.000 5219.503787845730 -710.650859398003 -4307.771644880900 -2.05307069524167 6.45496759487444 -3.55246026244887
2024-10-04T19:18:30.000 4544.036080202320 845.519325904472 -4993.873669446520 -3.54144864334701 6.43442798751649 -2.13047179974242
2024-10-04T19:22:30.000 3540.196579029060 2340.595682979910 -5318.084848308130 -4.77309141489818 5.94900045545113 -0.55492197638727
2024-10-04T19:26:30.000 2280.599450900810 3666.565094172450 -5256.998163915230 -5.65995710583135 5.03365372808472 1.06101014624023
2024-10-04T19:30:30.000 856.179045714664 4727.498870409820 -4814.861157240150 -6.13825584888709 3.75354358631375 2.60134152409403
2024-10-04T19:34:30.000 -630.172517210724 5446.318735258300 -4023.322376298250 -6.17271976548715 2.19977071731374 3.95499113643328
2024-10-04T19:38:30.000 -2070.816821378480 5770.363637432230 -2939.342628298980 -5.75940528555009 0.48361753150943 5.02333729611600
2024-10-04T19:42:30.000 -3361.054720467510 5675.381598751870 -1641.327866217820 -4.92673130829732 -1.27081477870412 5.72746344637783
2024-10-04T19:46:30.000 -4406.784679975150 5167.579391701430 -223.608757611436 -3.73418651549373 -2.93536093996503 6.01452611192209
2024-10-04T19:50:30.000 -5131.550684970450 4283.428628531700 1210.423067661090 -2.26842236815148 -4.38766444569594 5.86241855400520
2024-10-04T19:54:30.000 -5482.322999390270 3087.104424008540 2555.980246326370 -0.63677173541795 -5.52071692230689 5.28174163288242
2024-10-04T19:58:30.000 -5433.504532581320 1665.768849106140 3714.709151008170 1.04098353482787 -6.25123128947132 4.31515898168772
2024-10-04T20:02:30.000 -4988.808175458160 123.061713489409 4602.025121167480 2.64198306166383 -6.52602649901880 3.03394775435386
2024-10-04T20:06:30.000 -4180.862604601500 -1428.616577358500 5153.315241433160 4.04959861732110 -6.32564097390274 1.53214954083655
2024-10-04T20:10:30.000 -3068.695667619230 -2876.353139451540 5328.564258709390 5.16176303624778 -5.66521508291408 -0.08054510205933
2024-10-04T20:14:30.000 -1733.350008155960 -4114.906150302890 5115.175989757680 5.89817083490925 -4.59310337244453 -1.68673828332870
2024-10-04T20:18:30.000 -271.967516746202 -5054.269601258300 4528.807958144000 6.20569304510696 -3.18714479023457 -3.16974742724716
2024-10-04T20:22:30.000 1209.198910303370 -5626.144555079640 3612.227146330360 6.06201756020867 -1.54937130696618 -4.42168631054258
2024-10-04T20:26:30.000 2602.450133769270 -5788.932338803810 2432.255027188100 5.47755025738120 0.20105849580326 -5.35121551994096
2024-10-04T20:30:30.000 3806.499873373430 -5530.838988117130 1074.943867617200 4.49503211333018 1.93648347535257 -5.89045570940838
2024-10-04T20:34:30.000 4733.921531365550 -4870.784733671700 -360.720369871906 3.18652077978624 3.53020859720349 -6.00022723636521
2024-10-04T20:38:30.000 5317.586711436070 -3857.014478358100 -1770.132849384580 1.64802516618954 4.86614344253551 -5.67318104298544
2024-10-04T20:42:30.000 5515.553344106090 -2563.460741408840 -3050.810185430910 -0.00796070567013 5.84765537855494 -4.93417502710775
2024-10-04T20:46:30.000 5313.995381583470 -1084.194245941520 -4109.893295244050 -1.66111451156460 6.40453486892516 -3.83797974585986
2024-10-04T20:50:30.000 4728.006130458780 473.528553008108 -4870.828882233260 -3.19224265349724 6.49768872018951 -2.46477756107078
2024-10-04T20:54:30.000 3800.301992194740 1997.041481447730 -5278.741047034360 -4.49164844174101 6.12127213127421 -0.91391594976702
2024-10-04T20:58:30.000 2598.043756828820 3376.273608578560 -5304.202694650540 -5.46645830735480 5.30257303192835 0.70311644438645
2024-10-04T21:02:30.000 1208.043265616440 4511.486940028370 -4945.244494249420 -6.04667955937115 4.09991703672852 2.27026423571249
